SL-16 R/B               
1 22803U 93059B   26093.95669856  .00000086  00000+0  66081-4 0  9993
2 22803  70.9906 317.8462 0017084 179.1684 180.9472 14.17234867683118
ARIANE 40 R/B           
1 22830U 93061H   26094.18660452  .00000340  00000+0  14028-3 0  9991
2 22830  98.4870 162.5652 0010353 202.6778 157.3950 14.32875666697756
COSMOS 2278             
1 23087U 94023A   26094.27040193  .00000013  00000+0  31540-4 0  9995
2 23087  71.0505 121.5800 0009339 335.5362  24.5316 14.14374933648422
SL-16 R/B               
1 23088U 94023B   26094.23465655  .00000184  00000+0  11946-3 0  9992
2 23088  71.0031  17.2394 0005588 263.3895  96.6591 14.15019614649707
SL-16 R/B               
1 23343U 94074B   26094.08892075  .00000820  00000+0  11642-3 0  9995
2 23343  97.7070 123.8739 0007684 130.6619 289.9702 14.79439412691008
SL-16 R/B               
1 23405U 94077B   26093.99429817 -.00000191  00000+0 -72958-4 0  9997
2 23405  70.9821 299.2542 0001604 190.0745 170.0346 14.15568198619817
ARIANE 40+ R/B          
1 23561U 95021B   26094.18123538  .00000474  00000+0  16486-3 0  9998
2 23561  98.4453 165.3128 0007834  70.9108 343.4137 14.39792168622910
SL-16 R/B               
1 23705U 95058B   26094.28519929 -.00000041  00000+0  33533-5 0  9997
2 23705  71.0191 126.5202 0010299  78.8463 281.3818 14.15497841571472
SL-16 R/B               
1 24298U 96051B   26094.23664594  .00000131  00000+0  97419-4 0  9994
2 24298  70.7581 121.1671 0013102 106.0632 254.1932 14.12423468525259
ORBVIEW 2 (SEASTAR)     
1 24883U 97037A   26094.20748543  .00000444  00000+0  17044-3 0  9995
2 24883  98.8611 259.2014 0002077  14.3141 345.8103 14.35514238512135
SL-16 R/B               
1 25400U 98043G   26094.27099856  .00000107  00000+0  63826-4 0  9998
2 25400  98.8298  47.8227 0008960 304.2390  55.7940 14.26056094442637
SL-16 R/B               
1 25407U 98045B   26094.28355520  .00000083  00000+0  65946-4 0  9999
2 25407  71.0090 127.7530 0008226 330.5545  29.5114 14.16193545430722
ISS (ZARYA)             
1 25544U 98067A   26094.06925453  .00011847  00000+0  22464-3 0  9996
2 25544  51.6326 306.8840 0006251 269.7954  90.2318 15.48758130560264
CZ-4B R/B               
1 25732U 99025C   26094.13371256  .00000086  00000+0  62560-4 0  9999
2 25732  98.6573 137.8064 0035977 271.6847 151.1591 14.18270738391775
OKEAN-O                 
1 25860U 99039A   26094.13432624  .00001168  00000+0  15983-3 0  9991
2 25860  97.9389 153.7604 0000924 103.2505 256.8810 14.80379840438150
SL-16 R/B               
1 25861U 99039B   26094.15782914  .00001019  00000+0  13580-3 0  9990
2 25861  97.9912 153.2095 0015050 169.6846 190.4678 14.81769655440631
DELTA 2 R/B             
1 25876U 99041E   26094.28028046  .00000993  00000+0  19920-3 0  9996
2 25876  51.7610 199.0514 0502625  63.8946 301.2810 14.11898885366648
